{
    "links": {
        "self": "http://www.neowsapp.com/rest/v1/neo/3757051?api_key=iIulBulltgU6a56xZRHN4H3l9WmuAYTsLGpBGhQ2"
    },
    "id": "3757051",
    "neo_reference_id": "3757051",
    "name": "(2016 NC56)",
    "designation": "2016 NC56",
    "nasa_jpl_url": "http://ssd.jpl.nasa.gov/sbdb.cgi?sstr=3757051",
    "absolute_magnitude_h": 27.3,
    "estimated_diameter": {
        "kilometers": {
            "estimated_diameter_min": 0.0092162655,
            "estimated_diameter_max": 0.0206081961
        },
        "meters": {
            "estimated_diameter_min": 9.216265485,
            "estimated_diameter_max": 20.6081961232
        },
        "miles": {
            "estimated_diameter_min": 0.0057267201,
            "estimated_diameter_max": 0.0128053354
        },
        "feet": {
            "estimated_diameter_min": 30.2370924539,
            "estimated_diameter_max": 67.6121941689
        }
    },
    "is_potentially_hazardous_asteroid": false,
    "close_approach_data": [
        {
            "close_approach_date": "2016-07-05",
            "close_approach_date_full": "2016-Jul-05 23:39",
            "epoch_date_close_approach": 1467761940000,
            "relative_velocity": {
                "kilometers_per_second": "14.6984559426",
                "kilometers_per_hour": "52914.4413935227",
                "miles_per_hour": "32878.976098103"
            },
            "miss_distance": {
                "astronomical": "0.00884372",
                "lunar": "3.44020708",
                "kilometers": "1323001.6748764",
                "miles": "822075.12063832"
            },
            "orbiting_body": "Moon"
        },
        {
            "close_approach_date": "2016-07-06",
            "close_approach_date_full": "2016-Jul-06 06:50",
            "epoch_date_close_approach": 1467787800000,
            "relative_velocity": {
                "kilometers_per_second": "14.6421037376",
                "kilometers_per_hour": "52711.5734551804",
                "miles_per_hour": "32752.9218505258"
            },
            "miss_distance": {
                "astronomical": "0.0084475064",
                "lunar": "3.2860799896",
                "kilometers": "1263728.964251368",
                "miles": "785244.7661021584"
            },
            "orbiting_body": "Earth"
        }
    ],
    "orbital_data": {
        "orbit_id": "2",
        "orbit_determination_date": "2017-04-06 08:24:52",
        "first_observation_date": "2016-07-10",
        "last_observation_date": "2016-07-13",
        "data_arc_in_days": 3,
        "observations_used": 18,
        "orbit_uncertainty": "8",
        "minimum_orbit_intersection": ".00845168",
        "jupiter_tisserand_invariant": "3.410",
        "epoch_osculation": "2457582.5",
        "eccentricity": ".6166249931556715",
        "semi_major_axis": "2.169958667133086",
        "inclination": "5.538508492792377",
        "ascending_node_longitude": "289.1935861571725",
        "orbital_period": "1167.550352381153",
        "perihelion_distance": ".8319079188640568",
        "perihelion_argument": "296.5021572446407",
        "aphelion_distance": "3.508009415402116",
        "perihelion_time": "2457534.821743078772",
        "mean_anomaly": "14.70101264295517",
        "mean_motion": ".3083378796176118",
        "equinox": "J2000",
        "orbit_class": {
            "orbit_class_type": "APO",
            "orbit_class_description": "Near-Earth asteroid orbits which cross the Earth’s orbit similar to that of 1862 Apollo",
            "orbit_class_range": "a (semi-major axis) > 1.0 AU; q (perihelion) < 1.017 AU"
        }
    },
    "is_sentry_object": false
}